[Satellite]
VERSION=1.1
NAME=COSMOS 1455
NICKNAME=COSMOS 1455
TLE1=1 14032U 83037A   19316.53264207  .00000401  00000-0  17937-4 0  9996
TLE2=2 14032  82.5133 299.1780 0018760 104.5646 255.7670 15.18085990994592
STATUS=0
